NORAD_CAT_ID,OBJECT_NAME,OBJECT_TYPE,EPOCH,MEAN_MOTION,ECCENTRICITY,INCLINATION,RA_OF_ASC_NODE,ARG_OF_PERICENTER,MEAN_ANOMALY,BSTAR,MEAN_MOTION_DOT,MEAN_MOTION_DDOT,TLE_LINE0,TLE_LINE1,TLE_LINE2,SEMIMAJOR_AXIS,PERIOD,APOGEE,PERIGEE,DECAYED
53737.0,STARLINK-4646,PAYLOAD,2024-07-09 22:11:38,15.08843501,0.0001388,53.216,112.3376,111.8425,248.2714,8.7304e-05,1.102e-05,0.0,0 STARLINK-4646,1 53737U 22107AP  24191.92475374  .00001102  00000-0  87304-4 0  9995,2 53737  53.2160 112.3376 0001388 111.8425 248.2714 15.08843501102847,6917.87,95.437,540.695,538.774,0.0
53737.0,STARLINK-4646,PAYLOAD,2024-07-10 01:22:25,15.08842418,0.0001435,53.2183,111.7451,100.5942,259.5212,8.0886e-05,1e-05,0.0,0 STARLINK-4646,1 53737U 22107AP  24192.05723489  .00001000  00000-0  80886-4 0  9998,2 53737  53.2183 111.7451 0001435 100.5942 259.5212 15.08842418102081,6917.873,95.437,540.731,538.745,0.0
53737.0,STARLINK-4646,PAYLOAD,2024-07-10 22:02:25,15.08840884,0.0001606,53.2178,107.8795,100.271,259.8463,-0.00013234,-2.394e-05,0.0,0 STARLINK-4646,1 53737U 22107AP  24192.91835522 -.00002394  00000-0 -13234-3 0  9996,2 53737  53.2178 107.8795 0001606 100.2710 259.8463 15.08840884102998,6917.878,95.437,540.854,538.632,0.0
53737.0,STARLINK-4646,PAYLOAD,2024-07-10 23:37:49,15.08840583,0.0001594,53.2177,107.5822,100.4361,259.6811,-0.00012895,-2.34e-05,0.0,0 STARLINK-4646,1 53737U 22107AP  24192.98459521 -.00002340  00000-0 -12895-3 0  9997,2 53737  53.2177 107.5822 0001594 100.4361 259.6811 15.08840583103009,6917.879,95.438,540.846,538.641,0.0
53737.0,STARLINK-4646,PAYLOAD,2024-07-12 01:03:59,15.0884027,0.0001179,53.2179,102.8267,94.131,265.9816,0.00018192,2.609e-05,0.0,0 STARLINK-4646,1 53737U 22107AP  24194.04443454  .00002609  00000-0  18192-3 0  9996,2 53737  53.2179 102.8267 0001179  94.1310 265.9816 15.08840270102382,6917.88,95.438,540.56,538.929,0.0
53737.0,STARLINK-4646,PAYLOAD,2024-07-12 10:36:18,15.08834642,0.0001278,53.2167,101.0426,99.6189,260.4948,0.00010154,1.328e-05,0.0,0 STARLINK-4646,1 53737U 22107AP  24194.44187969  .00001328  00000-0  10154-3 0  9993,2 53737  53.2167 101.0426 0001278  99.6189 260.4948 15.08834642102440,6917.897,95.438,540.646,538.878,0.0
53737.0,STARLINK-4646,PAYLOAD,2024-07-12 21:44:00,15.0883371,0.0001337,53.2174,98.9614,99.7208,260.3935,-2.1073e-05,-6.23e-06,0.0,0 STARLINK-4646,1 53737U 22107AP  24194.90556205 -.00000623  00000-0 -21073-4 0  9999,2 53737  53.2174  98.9614 0001337  99.7208 260.3935 15.08833710103294,6917.9,95.438,540.69,538.84,0.0
53737.0,STARLINK-4646,PAYLOAD,2024-07-13 10:27:05,15.08843707,0.0001307,53.2173,96.5818,79.5902,280.5238,0.00012651,1.726e-05,0.0,0 STARLINK-4646,1 53737U 22107AP  24195.43547875  .00001726  00000-0  12651-3 0  9995,2 53737  53.2173  96.5818 0001307  79.5902 280.5238 15.08843707103373,6917.869,95.437,540.638,538.83,0.0
53737.0,STARLINK-4646,PAYLOAD,2024-07-13 21:34:47,15.088413,0.0001385,53.2183,94.5003,90.0541,270.061,5.1503e-05,5.32e-06,0.0,0 STARLINK-4646,1 53737U 22107AP  24195.89916337  .00000532  00000-0  51503-4 0  9992,2 53737  53.2183  94.5003 0001385  90.0541 270.0610 15.08841300102667,6917.876,95.437,540.7,538.783,0.0
53737.0,STARLINK-4646,PAYLOAD,2024-07-14 02:20:56,15.08852855,0.0001149,53.2168,93.6029,82.6017,277.5106,0.00012449,1.695e-05,0.0,0 STARLINK-4646,1 53737U 22107AP  24196.09787182  .00001695  00000-0  12449-3 0  9995,2 53737  53.2168  93.6029 0001149  82.6017 277.5106 15.08852855102693,6917.841,95.437,540.501,538.911,0.0
53737.0,STARLINK-4646,PAYLOAD,2024-07-14 10:17:52,15.08847134,0.000127,53.2177,92.117,86.5921,273.5216,8.7149e-06,-1.49e-06,0.0,0 STARLINK-4646,1 53737U 22107AP  24196.42907704 -.00000149  00000-0  87149-5 0  9991,2 53737  53.2177  92.1170 0001270  86.5921 273.5216 15.08847134102744,6917.859,95.437,540.602,538.845,0.0
53737.0,STARLINK-4646,PAYLOAD,2024-07-14 21:25:34,15.08840047,0.0001301,53.2176,90.0355,91.6528,268.4613,0.00024246,3.573e-05,0.0,0 STARLINK-4646,1 53737U 22107AP  24196.89275803  .00003573  00000-0  24246-3 0  9990,2 53737  53.2176  90.0355 0001301  91.6528 268.4613 15.08840047103594,6917.88,95.438,540.645,538.845,0.0
53737.0,STARLINK-4646,PAYLOAD,2024-07-15 02:11:42,15.08856189,0.0001212,53.2161,89.1434,86.9555,273.1576,0.00017505,2.5e-05,0.0,0 STARLINK-4646,1 53737U 22107AP  24197.09146788  .00002500  00000-0  17505-3 0  9991,2 53737  53.2161  89.1434 0001212  86.9555 273.1576 15.08856189102845,6917.831,95.437,540.534,538.857,0.0
53737.0,STARLINK-4646,PAYLOAD,2024-07-15 10:08:39,15.08841567,0.0001692,53.2174,87.6607,80.4363,279.682,3.0203e-05,1.93e-06,0.0,0 STARLINK-4646,1 53737U 22107AP  24197.42267839  .00000193  00000-0  30203-4 0  9996,2 53737  53.2174  87.6607 0001692  80.4363 279.6820 15.08841567102894,6917.876,95.437,540.911,538.57,0.0
53737.0,STARLINK-4646,PAYLOAD,2024-07-15 22:51:44,15.08838313,0.0001412,53.2168,85.2803,88.199,271.9164,4.2027e-05,3.81e-06,0.0,0 STARLINK-4646,1 53737U 22107AP  24197.95260000  .00000381  00000-0  42027-4 0  9993,2 53737  53.2168  85.2803 0001412  88.1990 271.9164 15.08838313103757,6917.886,95.438,540.727,538.774,0.0
53737.0,STARLINK-4646,PAYLOAD,2024-07-16 21:07:07,15.08850417,0.0001388,53.2168,81.1149,96.558,263.557,0.0001782,2.55e-05,0.0,0 STARLINK-4646,1 53737U 22107AP  24198.87995136  .00002550  00000-0  17820-3 0  9992,2 53737  53.2168  81.1149 0001388  96.5580 263.5570 15.08850417103112,6917.849,95.437,540.674,538.753,0.0
53737.0,STARLINK-4646,PAYLOAD,2024-07-17 01:53:16,15.08857248,0.0001492,53.217,80.2186,106.7245,253.3911,0.00031211,4.685e-05,0.0,0 STARLINK-4646,1 53737U 22107AP  24199.07866752  .00004685  00000-0  31211-3 0  9997,2 53737  53.2170  80.2186 0001492 106.7245 253.3911 15.08857248103928,6917.828,95.436,540.725,538.661,0.0
53737.0,STARLINK-4646,PAYLOAD,2024-07-17 20:57:55,15.0883453,0.0001479,53.2175,76.6553,99.9818,260.1341,1.9131e-05,1.6e-07,0.0,0 STARLINK-4646,1 53737U 22107AP  24199.87356086  .00000016  00000-0  19131-4 0  9991,2 53737  53.2175  76.6553 0001479  99.9818 260.1341 15.08834530103263,6917.897,95.438,540.785,538.739,0.0
53737.0,STARLINK-4646,PAYLOAD,2024-07-18 22:24:05,15.08846001,0.0001475,53.218,71.8977,105.0608,255.0548,0.00041226,6.28e-05,0.0,0 STARLINK-4646,1 53737U 22107AP  24200.93340182  .00006280  00000-0  41226-3 0  9999,2 53737  53.2180  71.8977 0001475 105.0608 255.0548 15.08846001104201,6917.862,95.437,540.747,538.707,0.0
53737.0,STARLINK-4646,PAYLOAD,2024-07-19 01:34:52,15.08848529,0.0001479,53.2178,71.3003,105.3945,254.7211,0.00050703,7.792e-05,0.0,0 STARLINK-4646,1 53737U 22107AP  24201.06588141  .00007792  00000-0  50703-3 0  9992,2 53737  53.2178  71.3003 0001479 105.3945 254.7211 15.08848529103449,6917.854,95.437,540.742,538.696,0.0
53737.0,STARLINK-4646,PAYLOAD,2024-07-19 07:56:25,15.08840711,0.0001453,53.2177,70.109,85.8184,274.2974,0.00058017,8.958e-05,0.0,0 STARLINK-4646,1 53737U 22107AP  24201.33084519  .00008958  00000-0  58017-3 0  9993,2 53737  53.2177  70.1090 0001453  85.8184 274.2974 15.08840711103482,6917.878,95.438,540.748,538.738,0.0
53737.0,STARLINK-4646,PAYLOAD,2024-07-19 22:14:53,15.08843053,9.96e-05,53.2162,67.4387,84.6015,275.5091,0.00019471,2.813e-05,0.0,0 STARLINK-4646,1 53737U 22107AP  24201.92700283  .00002813  00000-0  19471-3 0  9996,2 53737  53.2162  67.4387 0000996  84.6015 275.5091 15.08843053104358,6917.871,95.437,540.425,539.047,0.0
53737.0,STARLINK-4646,PAYLOAD,2024-07-20 07:47:11,15.08849066,0.0001032,53.2166,65.6547,84.7057,275.4052,0.00025457,3.767e-05,0.0,0 STARLINK-4646,1 53737U 22107AP  24202.32443974  .00003767  00000-0  25457-3 0  9992,2 53737  53.2166  65.6547 0001032  84.7057 275.4052 15.08849066104412,6917.853,95.437,540.432,539.004,0.0
53737.0,STARLINK-4646,PAYLOAD,2024-07-20 20:30:17,15.08837026,0.0001172,53.217,63.2739,82.3077,277.8048,-4.9817e-05,-1.081e-05,0.0,0 STARLINK-4646,1 53737U 22107AP  24202.85436559 -.00001081  00000-0 -49817-4 0  9997,2 53737  53.2170  63.2739 0001172  82.3077 277.8048 15.08837026103711,6917.889,95.438,540.565,538.944,0.0
53737.0,STARLINK-4646,PAYLOAD,2024-07-20 22:05:40,15.08841526,0.0001276,53.2176,62.9766,76.6525,283.4609,6.1072e-05,6.84e-06,0.0,0 STARLINK-4646,1 53737U 22107AP  24202.92060466  .00000684  00000-0  61072-4 0  9998,2 53737  53.2176  62.9766 0001276  76.6525 283.4609 15.08841526104506,6917.876,95.437,540.623,538.858,0.0
53737.0,STARLINK-4646,PAYLOAD,2024-07-20 23:41:03,15.08843823,0.0001287,53.2177,62.6798,79.2791,280.8346,0.0001892,2.725e-05,0.0,0 STARLINK-4646,1 53737U 22107AP  24202.98684393  .00002725  00000-0  18920-3 0  9996,2 53737  53.2177  62.6798 0001287  79.2791 280.8346 15.08843823103730,6917.869,95.437,540.624,538.843,0.0
53737.0,STARLINK-4646,PAYLOAD,2024-07-21 21:56:27,15.08843337,0.0001462,53.2175,58.5149,63.7338,296.3804,0.00029628,4.431e-05,0.0,0 STARLINK-4646,1 53737U 22107AP  24203.91420881  .00004431  00000-0  29628-3 0  9993,2 53737  53.2175  58.5149 0001462  63.7338 296.3804 15.08843337104655,6917.87,95.437,540.747,538.724,0.0
53737.0,STARLINK-4646,PAYLOAD,2024-07-22 13:50:19,15.08831796,0.0001239,53.2176,55.544,106.8483,253.2646,0.00014069,1.951e-05,0.0,0 STARLINK-4646,1 53737U 22107AP  24204.57661586  .00001951  00000-0  14069-3 0  9992,2 53737  53.2176  55.5440 0001239 106.8483 253.2646 15.08831796104752,6917.905,95.438,540.628,538.913,0.0
53737.0,STARLINK-4646,PAYLOAD,2024-07-22 21:47:17,15.08765689,7.44e-05,53.2166,54.054,121.9403,238.1661,-0.0013181,-0.00021161,0.0,0 STARLINK-4646,1 53737U 22107AP  24204.90783831 -.00021161  00000-0 -13181-2 0  9997,2 53737  53.2166  54.0540 0000744 121.9403 238.1661 15.08765689104808,6918.108,95.442,540.487,539.458,0.0
53737.0,STARLINK-4646,PAYLOAD,2024-07-23 07:19:36,15.08813477,5.22e-05,53.2157,52.2709,131.3082,228.7956,0.00023421,3.439e-05,0.0,0 STARLINK-4646,1 53737U 22107AP  24205.30528186  .00003439  00000-0  23421-3 0  9997,2 53737  53.2157  52.2709 0000522 131.3082 228.7956 15.08813477104088,6917.961,95.439,540.188,539.465,0.0
